satname,norad_id,inclination_deg,eccentricity,mean_motion_rev_per_day,perigee_km,apogee_km,l1,l2
STARLINK-1316,45415,53.1556,0.0005309,15.39248127,444.7072476409039,451.95559180896726,1 45415U 20019BH  26163.82458409  .00048394  00000+0  12266-2 0  9995,2 45415  53.1556  44.4075 0005309  99.2634 260.8971 15.39248127344602
STARLINK-1286,45417,53.0462,0.0001696,15.64673819,373.03182173593177,375.3222066495464,1 45417U 20019BK  26163.84905830  .00055258  00000+0  56127-3 0  9996,2 45417  53.0462  29.8092 0001696 229.6021 130.4845 15.64673819345048
STARLINK-1308,45419,53.0464,0.0007241,15.66308432,364.59239962673746,374.3642961735659,1 45419U 20019BM  26163.87030311  .00049346  00000+0  47000-3 0  9995,2 45419  53.0464  49.0499 0007241  61.3278 298.8464 15.66308432344520
STARLINK-1329,45531,53.0427,0.0002036,15.73864935,346.4936681401505,349.23249537344145,1 45531U 20025A   26163.20237433  .00081439  00000+0  56269-3 0  9994,2 45531  53.0427 335.8104 0002036 170.1280 189.9779 15.73864935340272
STARLINK-1338,45532,53.0446,0.0002479,15.68271877,362.17391509856407,365.51658989935186,1 45532U 20025B   26162.73277571  .00052472  00000+0  46161-3 0  9994,2 45532  53.0446 344.9458 0002479 114.2886 245.8389 15.68271877340101
STARLINK-1350,45535,53.0731,0.0001308,15.38328536,450.15840159788604,451.9449173512039,1 45535U 20025E   26163.25569462  .00010506  00000+0  28386-3 0  9999,2 45535  53.0731 308.2438 0001308  83.1989 276.9163 15.38328536340703
STARLINK-1362,45538,53.156,0.0001924,15.37855111,451.13894823816645,453.767359329343,1 45538U 20025H   26163.80618808  .00035726  00000+0  95211-3 0  9994,2 45538  53.1560  16.9154 0001924 209.1577 150.9320 15.37855111339776
STARLINK-1368,45540,53.157,0.0003458,15.37898624,449.9623374088087,454.68628445144805,1 45540U 20025K   26163.88404267  .00045110  00000+0  11962-2 0  9995,2 45540  53.1570  16.9103 0003458 155.6090 204.5078 15.37898624339775
STARLINK-1371,45542,53.0443,0.0003592,15.63177858,376.05732472673026,380.9112814708751,1 45542U 20025M   26163.80493463  .00101491  00000+0  10821-2 0  9993,2 45542  53.0443 349.5365 0003592 169.9052 190.2034 15.63177858340138
STARLINK-1372,45543,53.1574,0.0002854,15.38387578,448.9279255009178,452.8259266499226,1 45543U 20025N   26163.77609957  .00045337  00000+0  11832-2 0  9996,2 45543  53.1574  16.8994 0002854 143.1106 217.0095 15.38387578338867
STARLINK-1373,45544,53.0457,0.0002276,15.70369303,356.30762918232995,359.37384624853803,1 45544U 20025P   26163.76489686  .00063170  00000+0  50813-3 0  9999,2 45544  53.0457 345.0276 0002276  76.7696 283.3574 15.70369303340199
STARLINK-1327,45555,53.0421,0.0003549,15.67651972,363.229120532239,368.0158410116919,1 45555U 20025AA  26163.17786403  .00056570  00000+0  50965-3 0  9997,2 45555  53.0421 325.1738 0003549  79.8424 280.2991 15.67651972340417
STARLINK-1356,45564,53.0423,8.03e-05,15.65526715,371.18234563656824,372.26637337090415,1 45564U 20025AK  26163.20531802  .00044711  00000+0  44061-3 0  9996,2 45564  53.0423 338.2616 0000803 308.1906  51.9037 15.65526715340230
STARLINK-1357,45565,53.0453,0.0004146,15.69926344,356.3144661360784,361.9009894643714,1 45565U 20025AL  26162.65309817  .00058725  00000+0  48161-3 0  9999,2 45565  53.0453 297.5836 0004146 126.5631 233.5768 15.69926344340769
STARLINK-1361,45567,53.0427,0.000274,15.63595112,375.43123693184043,379.13320666538675,1 45567U 20025AN  26163.84650179  .00087828  00000+0  92367-3 0  9996,2 45567  53.0427 333.4894 0002740 292.7693  67.3031 15.63595112340369
STARLINK-1376,45570,53.1567,0.0003237,15.38736189,447.6352299467144,452.05566578346225,1 45570U 20025AR  26163.81687278  .00048296  00000+0  12451-2 0  9998,2 45570  53.1567 353.0981 0003237 132.1460 227.9820 15.38736189340100
STARLINK-1320,45572,53.0403,0.0009376,15.88371071,300.5815693223649,313.11725584323995,1 45572U 20025AT  26163.83335647  .00162368  00000+0  56470-3 0  9999,2 45572  53.0403 230.1138 0009376 352.7973 294.7197 15.88371071  5992
STARLINK-1321,45573,53.0415,0.0001407,15.64535179,373.62580210264514,375.52601551518364,1 45573U 20025AU  26163.14991891  .00114351  00000+0  11535-2 0  9994,2 45573  53.0415 320.7644 0001407 226.4547 133.6351 15.64535179340175
STARLINK-1331,45578,53.0456,0.0001059,15.64329157,374.45360847511165,375.88395864007,1 45578U 20025AZ  26163.81313036  .00083294  00000+0  85188-3 0  9999,2 45578  53.0456 324.4273 0001059 128.9312 231.1796 15.64329157340492
STARLINK-1333,45580,53.1585,0.0001894,15.35746195,457.41009015301097,459.99988589807435,1 45580U 20025BB  26163.80907344  .00073012  00000+0  20608-2 0  9994,2 45580  53.1585 354.7521 0001894 160.3917 199.7159 15.35746195340089
STARLINK-1335,45581,53.1553,0.00038,15.37464832,451.0129858288328,456.2051128263229,1 45581U 20025BC  26163.83337711  .00043303  00000+0  11652-2 0  9992,2 45581  53.1553 351.2981 0003800 151.3854 208.7359 15.37464832340121
STARLINK-1337,45582,53.0449,0.0003198,15.75254459,341.75747650959966,346.05689597111814,1 45582U 20025BD  26163.83023616  .00077704  00000+0  50593-3 0  9999,2 45582  53.0449 313.3014 0003198 106.8169 253.3200 15.75254459340636
STARLINK-1347,45586,53.0385,0.0001178,15.6906178,360.78840757512444,362.3762854531633,1 45586U 20025BH  26163.07462105  .00057023  00000+0  48503-3 0  9999,2 45586  53.0385 287.7294 0001178 126.1490 233.9635 15.69061780340925
STARLINK-1364,45589,53.0431,6.95e-05,15.69848683,358.86166802390017,359.7981759260538,1 45589U 20025BL  26163.27120511  .00066783  00000+0  54844-3 0  9994,2 45589  53.0431 323.4362 0000695 311.6226  48.4731 15.69848683340443
STARLINK-1365,45590,53.0458,0.000154,15.60007276,386.5941142244428,388.67797232177145,1 45590U 20025BM  26163.80712145  .00119783  00000+0  14394-2 0  9999,2 45590  53.0458 355.2960 0001540 132.1704 227.9439 15.60007276340061
STARLINK-1443,45660,53.1347,0.0001868,15.32988253,465.6238162300024,468.18112297584685,1 45660U 20035D   26163.81389221  .00041106  00000+0  12766-2 0  9998,2 45660  53.1347 343.5237 0001868  92.1655 267.9560 15.32988253333318
STARLINK-1446,45663,53.0222,0.0001526,15.47875844,421.903214995863,423.9789040196247,1 45663U 20035G   26162.53360003  .00033331  00000+0  63569-3 0  9995,2 45663  53.0222 272.0556 0001526 212.4523 147.6390 15.47875844334182
STARLINK-1448,45665,53.0435,0.0003844,15.68871743,359.53563176289936,364.71754641018924,1 45665U 20035J   26163.81165493  .00061633  00000+0  52751-3 0  9992,2 45665  53.0435 308.1632 0003844 101.9054 258.2393 15.68871743333786
STARLINK-1451,45668,53.052,0.0001763,15.14472547,521.3637304765798,523.7969234060592,1 45668U 20035M   26163.84453742  .00024197  00000+0  13119-2 0  9993,2 45668  53.0520 354.9391 0001763 134.1752 225.9386 15.14472547333149
STARLINK-1452,45669,53.0241,0.0005174,15.59829647,384.6488015630266,391.65055501772076,1 45669U 20035N   26163.83335647  .00118713  00000+0  14358-2 0  9990,2 45669  53.0241 283.4962 0005174 329.5701 296.8848 15.59829647  5922
STARLINK-1453,45670,53.0397,0.0001871,15.69574048,358.8550939824863,361.37654818813553,1 45670U 20035P   26163.77754610  .00072591  00000+0  60207-3 0  9998,2 45670  53.0397 268.5970 0001871 324.9666  35.1227 15.69574048334235
STARLINK-1454,45671,53.0426,0.0002285,15.6717464,365.45049777733766,368.53302162052023,1 45671U 20035Q   26163.11972715  .00055334  00000+0  50851-3 0  9995,2 45671  53.0426 312.8549 0002285  38.5617 321.5562 15.67174640333659
STARLINK-1456,45673,53.043,0.000334,15.65995278,368.1238665769024,372.6318745104254,1 45673U 20035S   26162.70751573  .00049833  00000+0  48101-3 0  9990,2 45673  53.0430 309.4965 0003340 172.1622 187.9446 15.65995278333688
STARLINK-1458,45675,53.0464,0.0001089,15.57907411,392.97683620663884,394.4517454177776,1 45675U 20035U   26163.13681010  .00112978  00000+0  14714-2 0  9991,2 45675  53.0464 322.2513 0001089  30.3920 329.7154 15.57907411333509
STARLINK-1460,45676,53.157,0.000229,15.3553639,457.76195340939466,460.89351225703194,1 45676U 20035V   26163.78528169  .00044968  00000+0  12867-2 0  9998,2 45676  53.1570 342.0584 0002290 190.9261 169.1693 15.35536390333293
STARLINK-1392,45677,53.1538,0.0001764,15.38757749,448.5772235788845,450.9861132851074,1 45677U 20035W   26162.81839274  .00046545  00000+0  11998-2 0  9991,2 45677  53.1538 345.1275 0001764 208.2537 151.8372 15.38757749333202
STARLINK-1394,45679,53.0411,0.0003601,15.65645423,368.95266779078065,373.8136722172176,1 45679U 20035Y   26162.64756189  .00047087  00000+0  46132-3 0  9998,2 45679  53.0411 300.0824 0003601 187.3127 172.7836 15.65645423333805
STARLINK-1402,45685,53.0412,0.0004232,15.58362062,389.5318149279374,395.2623949943754,1 45685U 20035AE  26163.05736919  .00080759  00000+0  10397-2 0  9996,2 45685  53.0412 289.1192 0004232 219.6469 140.4233 15.58362062334000
STARLINK-1404,45686,53.1576,0.0002946,15.45172746,428.86460587920465,432.87647312147783,1 45686U 20035AF  26163.18397536  .00074241  00000+0  15347-2 0  9998,2 45686  53.1576 324.8553 0002946 215.4468 144.6344 15.45172746333523
STARLINK-1413,45689,53.1581,0.0001447,15.35420789,458.68149039953187,460.6603520119297,1 45689U 20035AJ  26163.17348014  .00049082  00000+0  14079-2 0  9993,2 45689  53.1581 329.5696 0001447 222.8809 137.2081 15.35420789333379
STARLINK-1417,45693,53.05,0.0004606,15.17108734,511.40925328501,517.7588279076081,1 45693U 20035AN  26163.80308059  .00025800  00000+0  12967-2 0  9999,2 45693  53.0500 341.6977 0004606 155.0988 205.0229 15.17108734333311
STARLINK-1420,45695,53.0449,0.0002651,15.68630322,361.0311203725578,364.60517479180635,1 45695U 20035AQ  26162.59061764  .00054933  00000+0  47585-3 0  9999,2 45695  53.0449 283.4617 0002651 132.0105 228.1137 15.68630322334036
STARLINK-1422,45696,53.1566,0.0001936,15.35424541,458.3359843906328,460.98357930456405,1 45696U 20035AR  26163.17686963  .00046724  00000+0  13410-2 0  9997,2 45696  53.1566 329.5084 0001936 212.7159 147.3724 15.35424541333455
